{
  "timestamp": "2025-10-04T12:28:05.039749",
  "data": [
    {
      "OBJECT_NAME": "UNKNOWN",
      "OBJECT_ID": "",
      "EPOCH": "2025-10-03T15:49:36.587136",
      "MEAN_MOTION": 12.37445866,
      "ECCENTRICITY": 0.0374761,
      "INCLINATION": 103.8123,
      "RA_OF_ASC_NODE": 179.2202,
      "ARG_OF_PERICENTER": 354.5488,
      "MEAN_ANOMALY": 5.1547,
      "EPHEMERIS_TYPE": 0,
      "CLASSIFICATION_TYPE": "U",
      "NORAD_CAT_ID": 81812,
      "ELEMENT_SET_NO": 999,
      "REV_AT_EPOCH": 53189,
      "BSTAR": 0.034198,
      "MEAN_MOTION_DOT": 5.572e-5,
      "MEAN_MOTION_DDOT": 0
    },
    {
      "OBJECT_NAME": "UNKNOWN",
      "OBJECT_ID": "",
      "EPOCH": "2025-10-03T13:14:01.916448",
      "MEAN_MOTION": 13.89125461,
      "ECCENTRICITY": 0.0179278,
      "INCLINATION": 66.2369,
      "RA_OF_ASC_NODE": 111.0784,
      "ARG_OF_PERICENTER": 284.831,
      "MEAN_ANOMALY": 73.2965,
      "EPHEMERIS_TYPE": 0,
      "CLASSIFICATION_TYPE": "U",
      "NORAD_CAT_ID": 81816,
      "ELEMENT_SET_NO": 999,
      "REV_AT_EPOCH": 59959,
      "BSTAR": 0.00095678,
      "MEAN_MOTION_DOT": 1.242e-5,
      "MEAN_MOTION_DDOT": 0
    },
    {
      "OBJECT_NAME": "UNKNOWN",
      "OBJECT_ID": "",
      "EPOCH": "2025-10-03T06:04:49.447776",
      "MEAN_MOTION": 12.47490868,
      "ECCENTRICITY": 0.0035948,
      "INCLINATION": 102.1715,
      "RA_OF_ASC_NODE": 12.4396,
      "ARG_OF_PERICENTER": 243.9401,
      "MEAN_ANOMALY": 115.7963,
      "EPHEMERIS_TYPE": 0,
      "CLASSIFICATION_TYPE": "U",
      "NORAD_CAT_ID": 81819,
      "ELEMENT_SET_NO": 999,
      "REV_AT_EPOCH": 53922,
      "BSTAR": 0.0074112,
      "MEAN_MOTION_DOT": 1.047e-5,
      "MEAN_MOTION_DDOT": 0
    },
    {
      "OBJECT_NAME": "UNKNOWN",
      "OBJECT_ID": "",
      "EPOCH": "2025-09-30T23:53:21.989760",
      "MEAN_MOTION": 14.34294492,
      "ECCENTRICITY": 0.0033361,
      "INCLINATION": 65.8432,
      "RA_OF_ASC_NODE": 175.7275,
      "ARG_OF_PERICENTER": 3.9799,
      "MEAN_ANOMALY": 356.1553,
      "EPHEMERIS_TYPE": 0,
      "CLASSIFICATION_TYPE": "U",
      "NORAD_CAT_ID": 81824,
      "ELEMENT_SET_NO": 999,
      "REV_AT_EPOCH": 61415,
      "BSTAR": 0.00463,
      "MEAN_MOTION_DOT": 0.0001304,
      "MEAN_MOTION_DDOT": 0
    },
    {
      "OBJECT_NAME": "UNKNOWN",
      "OBJECT_ID": "",
      "EPOCH": "2025-10-03T15:51:31.995072",
      "MEAN_MOTION": 12.93687982,
      "ECCENTRICITY": 0.0027951,
      "INCLINATION": 90.2463,
      "RA_OF_ASC_NODE": 1.3643,
      "ARG_OF_PERICENTER": 202.6091,
      "MEAN_ANOMALY": 157.3798,
      "EPHEMERIS_TYPE": 0,
      "CLASSIFICATION_TYPE": "U",
      "NORAD_CAT_ID": 81833,
      "ELEMENT_SET_NO": 999,
      "REV_AT_EPOCH": 44345,
      "BSTAR": 0.00097233,
      "MEAN_MOTION_DOT": 2.75e-6,
      "MEAN_MOTION_DDOT": 0
    },
    {
      "OBJECT_NAME": "UNKNOWN",
      "OBJECT_ID": "",
      "EPOCH": "2025-09-16T00:40:25.152960",
      "MEAN_MOTION": 14.55293198,
      "ECCENTRICITY": 0.0034231,
      "INCLINATION": 67.7607,
      "RA_OF_ASC_NODE": 135.2991,
      "ARG_OF_PERICENTER": 101.7456,
      "MEAN_ANOMALY": 324.7467,
      "EPHEMERIS_TYPE": 0,
      "CLASSIFICATION_TYPE": "U",
      "NORAD_CAT_ID": 81838,
      "ELEMENT_SET_NO": 999,
      "REV_AT_EPOCH": 62056,
      "BSTAR": 0.0013092,
      "MEAN_MOTION_DOT": 5.645e-5,
      "MEAN_MOTION_DDOT": 0
    },
    {
      "OBJECT_NAME": "UNKNOWN",
      "OBJECT_ID": "",
      "EPOCH": "2025-10-03T03:27:39.483936",
      "MEAN_MOTION": 14.31933638,
      "ECCENTRICITY": 0.0062321,
      "INCLINATION": 82.9126,
      "RA_OF_ASC_NODE": 340.3275,
      "ARG_OF_PERICENTER": 11.2578,
      "MEAN_ANOMALY": 348.9987,
      "EPHEMERIS_TYPE": 0,
      "CLASSIFICATION_TYPE": "U",
      "NORAD_CAT_ID": 81844,
      "ELEMENT_SET_NO": 999,
      "REV_AT_EPOCH": 61278,
      "BSTAR": 0.0036439,
      "MEAN_MOTION_DOT": 9.997e-5,
      "MEAN_MOTION_DDOT": 0
    },
    {
      "OBJECT_NAME": "UNKNOWN",
      "OBJECT_ID": "",
      "EPOCH": "2025-09-30T07:21:32.763744",
      "MEAN_MOTION": 14.8442915,
      "ECCENTRICITY": 0.0088752,
      "INCLINATION": 97.6802,
      "RA_OF_ASC_NODE": 102.9928,
      "ARG_OF_PERICENTER": 185.7471,
      "MEAN_ANOMALY": 350.0173,
      "EPHEMERIS_TYPE": 0,
      "CLASSIFICATION_TYPE": "U",
      "NORAD_CAT_ID": 81845,
      "ELEMENT_SET_NO": 999,
      "REV_AT_EPOCH": 63862,
      "BSTAR": 0.0008399,
      "MEAN_MOTION_DOT": 7.528e-5,
      "MEAN_MOTION_DDOT": 0
    },
    {
      "OBJECT_NAME": "UNKNOWN",
      "OBJECT_ID": "",
      "EPOCH": "2025-10-02T04:19:07.412160",
      "MEAN_MOTION": 13.32041466,
      "ECCENTRICITY": 0.0758898,
      "INCLINATION": 65.6724,
      "RA_OF_ASC_NODE": 234.0442,
      "ARG_OF_PERICENTER": 44.2685,
      "MEAN_ANOMALY": 321.6554,
      "EPHEMERIS_TYPE": 0,
      "CLASSIFICATION_TYPE": "U",
      "NORAD_CAT_ID": 81864,
      "ELEMENT_SET_NO": 999,
      "REV_AT_EPOCH": 54130,
      "BSTAR": 0.0021738,
      "MEAN_MOTION_DOT": 5.468e-5,
      "MEAN_MOTION_DDOT": 0
    },
    {
      "OBJECT_NAME": "UNKNOWN",
      "OBJECT_ID": "",
      "EPOCH": "2025-10-03T05:01:04.154304",
      "MEAN_MOTION": 13.8768645,
      "ECCENTRICITY": 0.0063135,
      "INCLINATION": 82.801,
      "RA_OF_ASC_NODE": 83.1246,
      "ARG_OF_PERICENTER": 204.8552,
      "MEAN_ANOMALY": 279.3068,
      "EPHEMERIS_TYPE": 0,
      "CLASSIFICATION_TYPE": "U",
      "NORAD_CAT_ID": 81865,
      "ELEMENT_SET_NO": 999,
      "REV_AT_EPOCH": 59876,
      "BSTAR": 0.0028764,
      "MEAN_MOTION_DOT": 3.474e-5,
      "MEAN_MOTION_DDOT": 0
    },
    {
      "OBJECT_NAME": "UNKNOWN",
      "OBJECT_ID": "",
      "EPOCH": "2025-10-01T09:39:56.603808",
      "MEAN_MOTION": 13.76459668,
      "ECCENTRICITY": 0.0021328,
      "INCLINATION": 100.0405,
      "RA_OF_ASC_NODE": 253.775,
      "ARG_OF_PERICENTER": 92.1527,
      "MEAN_ANOMALY": 268.2063,
      "EPHEMERIS_TYPE": 0,
      "CLASSIFICATION_TYPE": "U",
      "NORAD_CAT_ID": 81893,
      "ELEMENT_SET_NO": 999,
      "REV_AT_EPOCH": 59412,
      "BSTAR": 0.0020914,
      "MEAN_MOTION_DOT": 2.001e-5,
      "MEAN_MOTION_DDOT": 0
    },
    {
      "OBJECT_NAME": "UNKNOWN",
      "OBJECT_ID": "",
      "EPOCH": "2025-10-02T04:17:47.620896",
      "MEAN_MOTION": 13.19906891,
      "ECCENTRICITY": 0.0172734,
      "INCLINATION": 102.4167,
      "RA_OF_ASC_NODE": 4.1179,
      "ARG_OF_PERICENTER": 5.0426,
      "MEAN_ANOMALY": 355.2373,
      "EPHEMERIS_TYPE": 0,
      "CLASSIFICATION_TYPE": "U",
      "NORAD_CAT_ID": 81899,
      "ELEMENT_SET_NO": 999,
      "REV_AT_EPOCH": 56954,
      "BSTAR": 0.0039641,
      "MEAN_MOTION_DOT": 1.663e-5,
      "MEAN_MOTION_DDOT": 0
    },
    {
      "OBJECT_NAME": "UNKNOWN",
      "OBJECT_ID": "",
      "EPOCH": "2025-09-23T15:07:48.445248",
      "MEAN_MOTION": 13.14768429,
      "ECCENTRICITY": 0.0851851,
      "INCLINATION": 65.7056,
      "RA_OF_ASC_NODE": 234.931,
      "ARG_OF_PERICENTER": 149.0638,
      "MEAN_ANOMALY": 216.3584,
      "EPHEMERIS_TYPE": 0,
      "CLASSIFICATION_TYPE": "U",
      "NORAD_CAT_ID": 81921,
      "ELEMENT_SET_NO": 999,
      "REV_AT_EPOCH": 1525,
      "BSTAR": 0.00020773,
      "MEAN_MOTION_DOT": 4.42e-6,
      "MEAN_MOTION_DDOT": 0
    }
  ]
}
