UNKNOWN                 
1 81812U          25276.65945124  .00005572  00000+0  34198-1 0  9992
2 81812 103.8123 179.2202 0374761 354.5488   5.1547 12.37445866531892
UNKNOWN                 
1 81816U          25276.55141107  .00001242  00000+0  95678-3 0  9996
2 81816  66.2369 111.0784 0179278 284.8310  73.2965 13.89125461599599
UNKNOWN                 
1 81819U          25276.25335009  .00001047  00000+0  74112-2 0  9994
2 81819 102.1715  12.4396 0035948 243.9401 115.7963 12.47490868539225
UNKNOWN                 
1 81824U          25273.99539340  .00013040  00000+0  46300-2 0  9996
2 81824  65.8432 175.7275 0033361   3.9799 356.1553 14.34294492614157
UNKNOWN                 
1 81833U          25276.66078698  .00000275  00000+0  97233-3 0  9995
2 81833  90.2463   1.3643 0027951 202.6091 157.3798 12.93687982443455
UNKNOWN                 
1 81838U          25259.02806890  .00005645  00000+0  13092-2 0  9990
2 81838  67.7607 135.2991 0034231 101.7456 324.7467 14.55293198620569
UNKNOWN                 
1 81844U          25276.14420699  .00009997  00000+0  36439-2 0  9992
2 81844  82.9126 340.3275 0062321  11.2578 348.9987 14.31933638612780
UNKNOWN                 
1 81845U          25273.30662921  .00007528  00000+0  83990-3 0  9997
2 81845  97.6802 102.9928 0088752 185.7471 350.0173 14.84429150638626
UNKNOWN                 
1 81864U          25275.17994690  .00005468  00000+0  21738-2 0  9998
2 81864  65.6724 234.0442 0758898  44.2685 321.6554 13.32041466541301
UNKNOWN                 
1 81865U          25276.20907586  .00003474  00000+0  28764-2 0  9993
2 81865  82.8010  83.1246 0063135 204.8552 279.3068 13.87686450598765
UNKNOWN                 
1 81893U          25274.40273847  .00002001  00000+0  20914-2 0  9994
2 81893 100.0405 253.7750 0021328  92.1527 268.2063 13.76459668594125
UNKNOWN                 
1 81899U          25275.17902339  .00001663  00000+0  39641-2 0  9990
2 81899 102.4167   4.1179 0172734   5.0426 355.2373 13.19906891569545
UNKNOWN                 
1 81921U          25266.63042182  .00000442  00000+0  20773-3 0  9999
2 81921  65.7056 234.9310 0851851 149.0638 216.3584 13.14768429 15250
